NORAD_CAT_ID,OBJECT_NAME,OBJECT_TYPE,EPOCH,MEAN_MOTION,ECCENTRICITY,INCLINATION,RA_OF_ASC_NODE,ARG_OF_PERICENTER,MEAN_ANOMALY,BSTAR,MEAN_MOTION_DOT,MEAN_MOTION_DDOT,TLE_LINE0,TLE_LINE1,TLE_LINE2,SEMIMAJOR_AXIS,PERIOD,APOGEE,PERIGEE,DECAYED
52533.0,STARLINK-3951,PAYLOAD,2024-08-12 21:12:04,15.08862063,0.0002225,53.2145,185.1809,81.4421,278.6823,0.00032861,4.949e-05,0.0,0 STARLINK-3951,1 52533U 22051A   24225.88339088  .00004949  00000-0  32861-3 0  9999,2 52533  53.2145 185.1809 0002225  81.4421 278.6823 15.08862063124881,6917.813,95.436,541.217,538.139,0.0
52533.0,STARLINK-3951,PAYLOAD,2024-08-13 03:33:37,15.08852651,0.0001271,53.2145,183.9923,98.3425,261.7711,0.00021366,3.115e-05,0.0,0 STARLINK-3951,1 52533U 22051A   24226.14835204  .00003115  00000-0  21366-3 0  9992,2 52533  53.2145 183.9923 0001271  98.3425 261.7711 15.08852651124921,6917.842,95.437,540.586,538.827,0.0
52533.0,STARLINK-3951,PAYLOAD,2024-08-14 03:24:25,15.0882489,0.0001186,53.2161,179.5297,86.0666,274.0462,-0.00021262,-3.669e-05,0.0,0 STARLINK-3951,1 52533U 22051A   24227.14196365 -.00003669  00000-0 -21262-3 0  9992,2 52533  53.2161 179.5297 0001186  86.0666 274.0462 15.08824890125071,6917.927,95.439,540.612,538.971,0.0
52533.0,STARLINK-3951,PAYLOAD,2024-08-14 06:35:11,15.08829564,0.0001139,53.2146,178.9362,89.9078,270.2045,-0.00022398,-3.85e-05,0.0,0 STARLINK-3951,1 52533U 22051A   24227.27444266 -.00003850  00000-0 -22398-3 0  9995,2 52533  53.2146 178.9362 0001139  89.9078 270.2045 15.08829564125020,6917.912,95.438,540.565,538.989,0.0
52533.0,STARLINK-3951,PAYLOAD,2024-08-15 03:15:12,15.08836259,0.0001286,53.2145,175.0703,81.4082,278.7056,0.0001576,2.221e-05,0.0,0 STARLINK-3951,1 52533U 22051A   24228.13556410  .00002221  00000-0  15760-3 0  9990,2 52533  53.2145 175.0703 0001286  81.4082 278.7056 15.08836259125227,6917.892,95.438,540.646,538.867,0.0
52533.0,STARLINK-3951,PAYLOAD,2024-08-16 03:06:00,15.08837269,0.0001279,53.2146,170.61,75.3915,284.7219,0.00031914,4.794e-05,0.0,0 STARLINK-3951,1 52533U 22051A   24229.12917060  .00004794  00000-0  31914-3 0  9998,2 52533  53.2146 170.6100 0001279  75.3915 284.7219 15.08837269125375,6917.889,95.438,540.639,538.869,0.0
52533.0,STARLINK-3951,PAYLOAD,2024-08-16 20:35:14,15.088431,0.0001267,53.215,167.3405,80.6985,279.415,0.00013327,1.834e-05,0.0,0 STARLINK-3951,1 52533U 22051A   24229.85780849  .00001834  00000-0  13327-3 0  9991,2 52533  53.2150 167.3405 0001267  80.6985 279.4150 15.08843100125415,6917.871,95.437,540.612,538.859,0.0
52533.0,STARLINK-3951,PAYLOAD,2024-08-17 01:21:24,15.08838347,0.0001237,53.2151,166.4486,81.3616,278.7516,3.5531e-05,2.78e-06,0.0,0 STARLINK-3951,1 52533U 22051A   24230.05653048  .00000278  00000-0  35531-4 0  9998,2 52533  53.2151 166.4486 0001237  81.3616 278.7516 15.08838347125517,6917.885,95.438,540.606,538.895,0.0
52533.0,STARLINK-3951,PAYLOAD,2024-08-18 04:22:57,15.08839039,0.0001199,53.2149,161.3861,78.0207,282.0919,3.2535e-05,2.3e-06,0.0,0 STARLINK-3951,1 52533U 22051A   24231.18260949  .00000230  00000-0  32535-4 0  9996,2 52533  53.2149 161.3861 0001199  78.0207 282.0919 15.08839039125683,6917.883,95.438,540.578,538.919,0.0
52533.0,STARLINK-3951,PAYLOAD,2024-08-18 05:58:20,15.08835995,0.000125,53.2161,161.0919,76.0904,284.0227,3.8707e-05,3.28e-06,0.0,0 STARLINK-3951,1 52533U 22051A   24231.24885120  .00000328  00000-0  38707-4 0  9992,2 52533  53.2161 161.0919 0001250  76.0904 284.0227 15.08835995125623,6917.893,95.438,540.622,538.893,0.0
52533.0,STARLINK-3951,PAYLOAD,2024-08-19 04:13:45,15.08836073,0.0001367,53.2173,156.9274,101.3848,258.7298,7.1685e-05,8.53e-06,0.0,0 STARLINK-3951,1 52533U 22051A   24232.17621740  .00000853  00000-0  71685-4 0  9996,2 52533  53.2173 156.9274 0001367 101.3848 258.7298 15.08836073125838,6917.892,95.438,540.703,538.812,0.0
52533.0,STARLINK-3951,PAYLOAD,2024-08-20 04:04:31,15.08846824,0.0001283,53.2172,152.4688,94.1756,265.9383,0.00017042,2.426e-05,0.0,0 STARLINK-3951,1 52533U 22051A   24233.16981157  .00002426  00000-0  17042-3 0  9991,2 52533  53.2172 152.4688 0001283  94.1756 265.9383 15.08846824125987,6917.86,95.437,540.612,538.837,0.0
52533.0,STARLINK-3951,PAYLOAD,2024-08-21 03:55:18,15.08851564,0.00013,53.2167,148.0088,100.4749,259.6389,0.0002372,3.49e-05,0.0,0 STARLINK-3951,1 52533U 22051A   24234.16340980  .00003490  00000-0  23720-3 0  9997,2 52533  53.2167 148.0088 0001300 100.4749 259.6389 15.08851564126062,6917.845,95.437,540.609,538.811,0.0
52533.0,STARLINK-3951,PAYLOAD,2024-08-21 21:24:33,15.08842536,0.0001723,53.2176,144.73,123.1493,236.9665,-2.053e-05,-6.15e-06,0.0,0 STARLINK-3951,1 52533U 22051A   24234.89205171 -.00000615  00000-0 -20530-4 0  9994,2 52533  53.2176 144.7300 0001723 123.1493 236.9665 15.08842536126175,6917.873,95.437,540.93,538.546,0.0
52533.0,STARLINK-3951,PAYLOAD,2024-08-21 22:59:56,15.08842439,0.0001763,53.2156,144.4369,143.1848,216.9265,-5.4199e-05,-1.151e-05,0.0,0 STARLINK-3951,1 52533U 22051A   24234.95829016 -.00001151  00000-0 -54199-4 0  9995,2 52533  53.2156 144.4369 0001763 143.1848 216.9265 15.08842439126250,6917.873,95.437,540.958,538.518,0.0
